STARLINK-4091           
1 52830U 22062A   22191.91667824  .00007462  00000+0  57535-4 0  9995
2 52830  53.2154 289.1225 0001931  23.0267 296.7166 15.73201106  4190
STARLINK-4089           
1 52831U 22062B   22191.91667824  .00006667  00000+0  51838-4 0  9992
2 52831  53.2156 289.1275 0002300  25.8250 291.7791 15.73224671  4192
STARLINK-4083           
1 52832U 22062C   22191.91667824  .00005689  00000+0  44847-4 0  9998
2 52832  53.2154 289.1256 0002176  28.0108 290.2144 15.73245087  4187
STARLINK-4086           
1 52833U 22062D   22191.91667824 -.00075163  00000+0 -53305-3 0  9993
2 52833  53.2160 289.1270 0002178  21.3483 297.4934 15.73321231  3681
STARLINK-4108           
1 52834U 22062E   22192.25001157  .00057932  00000+0  41387-3 0  9992
2 52834  53.2156 287.4702 0001983  25.8774  23.2154 15.73225732  3748
STARLINK-4080           
1 52835U 22062F   22191.91667824  .00004866  00000+0  39009-4 0  9991
2 52835  53.2159 289.1232 0002173  24.7229 295.9003 15.73240735  1305
STARLINK-4043           
1 52836U 22062G   22191.91667824  .00006658  00000+0  51746-4 0  9995
2 52836  53.2153 289.1196 0002163  22.7960 298.4370 15.73234803  3685
STARLINK-4036           
1 52837U 22062H   22192.58334491 -.00043698  00000+0 -30814-3 0  9990
2 52837  53.2154 285.8178 0002267  23.2243 117.9287 15.73227114  3796
STARLINK-4092           
1 52838U 22062J   22192.25001157 -.00035812  00000+0 -25151-3 0  9992
2 52838  53.2157 287.4680 0002063  23.6143  27.4843 15.73226360  4238
STARLINK-4048           
1 52839U 22062K   22191.91667824  .00006916  00000+0  53637-4 0  9996
2 52839  53.2155 289.1142 0002208  27.3199 297.1751 15.73210693  4182
STARLINK-4049           
1 52840U 22062L   22192.58334491  .00049310  00000+0  35152-3 0  9999
2 52840  53.2154 285.8161 0002548  25.5217 116.2360 15.73342641  4282
STARLINK-4065           
1 52841U 22062M   22192.58334491 -.00049865  00000+0 -35134-3 0  9997
2 52841  53.2161 285.8146 0002236  37.8079 106.1482 15.73304409  4283
STARLINK-4046           
1 52842U 22062N   22192.58334491 -.00041720  00000+0 -29328-3 0  9998
2 52842  53.2155 285.8198 0002222  21.8233 118.5899 15.73277759  4280
STARLINK-4188           
1 52843U 22062P   22191.91667824  .00004960  00000+0  39664-4 0  9992
2 52843  53.2158 289.1099 0001862  24.1453 303.0369 15.73248842  4183
STARLINK-4208           
1 52844U 22062Q   22192.25001157  .00029580  00000+0  21435-3 0  9993
2 52844  53.2157 287.4615 0002042  25.7959  28.2394 15.73208551  4230
STARLINK-4168           
1 52845U 22062R   22191.91667824  .00005840  00000+0  46019-4 0  9994
2 52845  53.2151 289.1049 0001823  24.7184 303.3747 15.73192126  4183
STARLINK-4212           
1 52846U 22062S   22192.58334491 -.00002299  00000+0 -11935-4 0  9996
2 52846  53.2156 285.8116 0002269  21.4581 123.1931 15.73236594  4289
STARLINK-4206           
1 52847U 22062T   22192.58334491 -.00142015  00000+0 -10340-2 0  9995
2 52847  53.2157 285.8061 0002694  15.7705 132.3467 15.72981193  4283
STARLINK-4202           
1 52848U 22062U   22191.91667824  .00008055  00000+0  61632-4 0  9996
2 52848  53.2153 289.1112 0002314  33.8950 291.5247 15.73249628  4180
STARLINK-4197           
1 52849U 22062V   22192.58334491  .00024471  00000+0  17844-3 0  9997
2 52849  53.2156 285.8039 0002306  23.9735 124.4045 15.73176195  4286
STARLINK-4187           
1 52850U 22062W   22192.25001157  .00067219  00000+0  48025-3 0  9995
2 52850  53.2159 287.4555 0002039  29.7477  27.8723 15.73163873  4235
STARLINK-3809           
1 52851U 22062X   22192.58334491  .00039302  00000+0  28457-3 0  9991
2 52851  53.2154 285.8019 0002432  17.2464 131.9996 15.73079860  4289
STARLINK-4184           
1 52852U 22062Y   22191.91667824  .00006642  00000+0  51733-4 0  9992
2 52852  53.2154 289.1029 0002284  28.6066 301.2573 15.73189445  4180
STARLINK-4189           
1 52853U 22062Z   22191.91667824  .00007615  00000+0  58641-4 0  9999
2 52853  53.2158 289.1001 0002080  20.9353 311.3126 15.73195292  4186
STARLINK-4204           
1 52854U 22062AA  22192.58334491 -.00049191  00000+0 -34747-3 0  9992
2 52854  53.2156 285.8013 0002271  25.3056 124.2496 15.73239572  4284
STARLINK-4209           
1 52855U 22062AB  22191.91667824  .00004280  00000+0  34854-4 0  9996
2 52855  53.2159 289.0978 0002299  35.3180 298.3843 15.73233475  1308
STARLINK-4201           
1 52856U 22062AC  22191.91667824 -.00015382  00000+0 -10532-3 0  9990
2 52856  53.2155 289.0968 0002102  23.9573 308.8950 15.73209130  4182
STARLINK-4199           
1 52857U 22062AD  22192.58334491 -.00070302  00000+0 -49833-3 0  9995
2 52857  53.2157 285.7957 0002353  25.4983 127.4073 15.73305220  4285
STARLINK-4198           
1 52858U 22062AE  22192.58334491 -.00063991  00000+0 -45456-3 0  9999
2 52858  53.2155 285.7979 0002159  26.4556 124.8853 15.73219018  4285
STARLINK-4196           
1 52859U 22062AF  22191.91667824  .00004671  00000+0  37710-4 0  9998
2 52859  53.2158 289.0936 0002152  16.2387 319.6207 15.73186560  4182
STARLINK-4191           
1 52860U 22062AG  22191.91667824  .00001183  00000+0  12857-4 0  9990
2 52860  53.2157 289.0946 0002342  23.4753 311.1653 15.73202919  4181
STARLINK-4112           
1 52861U 22062AH  22192.58334491 -.00045479  00000+0 -31941-3 0  9998
2 52861  53.2154 285.7875 0002145  35.4547 121.0996 15.73339179  4286
STARLINK-4010           
1 52862U 22062AJ  22191.91667824  .00006585  00000+0  51157-4 0  9999
2 52862  53.2148 289.0889 0002314  32.3363 303.7424 15.73270480  4185
STARLINK-4270           
1 52863U 22062AK  22192.58334491 -.00071081  00000+0 -50438-3 0  9990
2 52863  53.2157 285.7912 0002215  22.3663 132.9078 15.73285893  4280
STARLINK-4267           
1 52864U 22062AL  22191.91667824 -.00097716  00000+0 -69861-3 0  9999
2 52864  53.2159 289.0912 0002310  28.9565 308.0513 15.73239618  1303
STARLINK-4274           
1 52865U 22062AM  22191.91667824 -.00010340  00000+0 -69282-4 0  9996
2 52865  53.2151 289.0827 0002181  27.5910 312.4350 15.73213863  4187
STARLINK-4272           
1 52866U 22062AN  22191.91667824  .00006383  00000+0  49797-4 0  9996
2 52866  53.2153 289.0875 0002061  32.2259 305.6942 15.73235448  4183
STARLINK-4126           
1 52867U 22062AP  22192.25001157 -.00031977  00000+0 -22378-3 0  9990
2 52867  53.2157 287.4306 0002018  29.5332  40.5924 15.73249217  4232
STARLINK-4261           
1 52868U 22062AQ  22192.25001157 -.00023710  00000+0 -16480-3 0  9994
2 52868  53.2152 287.4320 0001956  32.8474  35.5266 15.73224026  4232
STARLINK-4266           
1 52869U 22062AR  22191.91667824  .00005952  00000+0  46719-4 0  9991
2 52869  53.2157 289.0825 0002164  22.5466 318.9641 15.73241435  4187
STARLINK-4195           
1 52870U 22062AS  22191.91667824 -.00013971  00000+0 -95162-4 0  9991
2 52870  53.2153 289.0817 0002190  24.3519 316.2365 15.73225745  4184
STARLINK-4207           
1 52871U 22062AT  22191.91667824  .00002924  00000+0  25237-4 0  9992
2 52871  53.2150 289.0756 0001988  20.6324 322.9206 15.73215706  4185
STARLINK-4213           
1 52872U 22062AU  22192.25001157  .00029960  00000+0  21654-3 0  9999
2 52872  53.2153 287.4273 0001797  24.7837  46.2988 15.73262704  4236
STARLINK-4211           
1 52873U 22062AV  22191.91667824  .00006067  00000+0  47660-4 0  9990
2 52873  53.2152 289.0743 0002348  22.7410 322.0470 15.73178555  4189
STARLINK-4210           
1 52874U 22062AW  22192.25001157  .00072606  00000+0  51774-3 0  9992
2 52874  53.2154 287.4259 0002095  29.8810  42.0533 15.73177806  4230
STARLINK-4193           
1 52875U 22062AX  22191.91667824  .00009997  00000+0  75454-4 0  9999
2 52875  53.2151 289.0734 0002241  23.3461 321.7081 15.73235647  4185
STARLINK-4200           
1 52876U 22062AY  22192.25001157  .00013661  00000+0  10156-3 0  9999
2 52876  53.2155 287.4241 0001929  25.8455  47.2878 15.73208414  4239
STARLINK-4214           
1 52877U 22062AZ  22191.91667824 -.00049213  00000+0 -34775-3 0  9998
2 52877  53.2153 289.0704 0001899  25.7959 320.7812 15.73233253  1305
STARLINK-4171           
1 52878U 22062BA  22192.25001157  .00009124  00000+0  69099-4 0  9991
2 52878  53.2154 287.4212 0002023  26.8530  47.8168 15.73288600  4232
STARLINK-4139           
1 52879U 22062BB  22191.91667824  .00006905  00000+0  53581-4 0  9996
2 52879  53.2151 289.0673 0002088  23.9031 324.4376 15.73199190  4188
STARLINK-4186           
1 52880U 22062BC  22191.91667824  .00006890  00000+0  53470-4 0  9998
2 52880  53.2149 289.0673 0001942  17.1608 330.5776 15.73200583  4181
STARLINK-4192           
1 52881U 22062BD  22192.25001157  .00072603  00000+0  51635-3 0  9993
2 52881  53.2158 287.4204 0002116  34.3309  41.4641 15.73240083  4231
STARLINK-4181           
1 52882U 22062BE  22192.25001157  .00035760  00000+0  25743-3 0  9998
2 52882  53.2158 287.4170 0002064  30.7490  46.9741 15.73262331  4238
FALCON 9 DEB            
1 52883U 22062BF  22188.79240019  .07116221  12340-4  45491-3 0  9991
2 52883  53.2105 300.6387 0007992 106.1842 254.0087 16.40944681  3259
FALCON 9 DEB            
1 52884U 22062BG  22189.15508000  .10731535  12508-4  27620-3 0  9995
2 52884  53.1966 298.6141 0005042  87.6062 272.5566 16.45634105  3315
FALCON 9 DEB            
1 52885U 22062BH  22188.52263366  .06756059  12449-4  30044-3 0  9990
2 52885  53.2091 301.7802 0004599  81.1646 278.9925 16.43276845  3218
SARAH-1                 
1 52887U 22063A   22174.76914807  .00057931  00000+0  16917-1 0  9990
2 52887  98.3930 181.8659 0001741 114.3380 245.7128 14.43706701  1277
GLOBALSTAR FM15         
1 52888U 22064A   22191.69556759 -.00000128  00000+0  00000+0 0  9992
2 52888  51.9747 155.2729 0009729  10.1285 349.9806 13.37539446  2849
PVSAT                   
1 52894U 22065A   22191.83363690  .00000160  00000+0  44895-4 0  9996
2 52894  98.0225 342.4313 0009898 170.1509 189.9886 14.57448516  2841
